[{"OBJECT_NAME":"SL-8 R/B","OBJECT_ID":"1979-089B","EPOCH":"2026-03-07T04:18:03.601440","MEAN_MOTION":14.42348558,"ECCENTRICITY":0.001715,"INCLINATION":74.0671,"RA_OF_ASC_NODE":95.6917,"ARG_OF_PERICENTER":268.6111,"MEAN_ANOMALY":91.3081,"EPHEMERIS_TYPE":0,"CLASSIFICATION_TYPE":"U","NORAD_CAT_ID":11574,"ELEMENT_SET_NO":999,"REV_AT_EPOCH":43574,"BSTAR":0.00010334,"MEAN_MOTION_DOT":3.15e-6,"MEAN_MOTION_DDOT":0},{"OBJECT_NAME":"SL-14 R/B","OBJECT_ID":"1980-005B","EPOCH":"2026-03-07T04:15:21.287808","MEAN_MOTION":14.90926386,"ECCENTRICITY":0.0015978,"INCLINATION":82.5149,"RA_OF_ASC_NODE":309.6194,"ARG_OF_PERICENTER":166.3983,"MEAN_ANOMALY":193.767,"EPHEMERIS_TYPE":0,"CLASSIFICATION_TYPE":"U","NORAD_CAT_ID":11672,"ELEMENT_SET_NO":999,"REV_AT_EPOCH":47611,"BSTAR":6.5139e-5,"MEAN_MOTION_DOT":6.69e-6,"MEAN_MOTION_DDOT":0},{"OBJECT_NAME":"SL-8 R/B","OBJECT_ID":"1981-003B","EPOCH":"2026-03-07T02:04:47.450784","MEAN_MOTION":15.10845283,"ECCENTRICITY":0.0262451,"INCLINATION":82.938,"RA_OF_ASC_NODE":292.4312,"ARG_OF_PERICENTER":187.6793,"MEAN_ANOMALY":172.0391,"EPHEMERIS_TYPE":0,"CLASSIFICATION_TYPE":"U","NORAD_CAT_ID":12139,"ELEMENT_SET_NO":999,"REV_AT_EPOCH":31428,"BSTAR":0.00057502,"MEAN_MOTION_DOT":0.00022353,"MEAN_MOTION_DDOT":0},{"OBJECT_NAME":"SL-3 R/B","OBJECT_ID":"1981-046B","EPOCH":"2026-03-07T02:58:19.992000","MEAN_MOTION":15.41910403,"ECCENTRICITY":0.0019768,"INCLINATION":81.2297,"RA_OF_ASC_NODE":292.8257,"ARG_OF_PERICENTER":31.077,"MEAN_ANOMALY":329.1637,"EPHEMERIS_TYPE":0,"CLASSIFICATION_TYPE":"U","NORAD_CAT_ID":12465,"ELEMENT_SET_NO":999,"REV_AT_EPOCH":43803,"BSTAR":0.00032169,"MEAN_MOTION_DOT":0.00013802,"MEAN_MOTION_DDOT":0},{"OBJECT_NAME":"SL-3 R/B","OBJECT_ID":"1981-103B","EPOCH":"2026-03-07T03:23:41.284320","MEAN_MOTION":15.21338252,"ECCENTRICITY":0.0012514,"INCLINATION":81.1587,"RA_OF_ASC_NODE":216.421,"ARG_OF_PERICENTER":295.7154,"MEAN_ANOMALY":64.2785,"EPHEMERIS_TYPE":0,"CLASSIFICATION_TYPE":"U","NORAD_CAT_ID":12904,"ELEMENT_SET_NO":999,"REV_AT_EPOCH":97284,"BSTAR":0.00031254,"MEAN_MOTION_DOT":7.037e-5,"MEAN_MOTION_DDOT":0},{"OBJECT_NAME":"SL-3 R/B","OBJECT_ID":"1982-013B","EPOCH":"2026-03-07T03:36:50.848992","MEAN_MOTION":15.2198349,"ECCENTRICITY":0.0022471,"INCLINATION":81.1764,"RA_OF_ASC_NODE":163.7457,"ARG_OF_PERICENTER":185.8669,"MEAN_ANOMALY":174.2304,"EPHEMERIS_TYPE":0,"CLASSIFICATION_TYPE":"U","NORAD_CAT_ID":13068,"ELEMENT_SET_NO":999,"REV_AT_EPOCH":40396,"BSTAR":0.00027035,"MEAN_MOTION_DOT":6.237e-5,"MEAN_MOTION_DDOT":0},{"OBJECT_NAME":"SL-3 R/B","OBJECT_ID":"1982-039B","EPOCH":"2026-03-07T03:19:56.843040","MEAN_MOTION":15.1006183,"ECCENTRICITY":0.0029792,"INCLINATION":81.1584,"RA_OF_ASC_NODE":218.9026,"ARG_OF_PERICENTER":332.7779,"MEAN_ANOMALY":27.1882,"EPHEMERIS_TYPE":0,"CLASSIFICATION_TYPE":"U","NORAD_CAT_ID":13154,"ELEMENT_SET_NO":999,"REV_AT_EPOCH":38125,"BSTAR":0.00019785,"MEAN_MOTION_DOT":3.275e-5,"MEAN_MOTION_DDOT":0},{"OBJECT_NAME":"SL-3 R/B","OBJECT_ID":"1982-079B","EPOCH":"2026-03-07T02:34:52.247424","MEAN_MOTION":15.24749804,"ECCENTRICITY":0.0024959,"INCLINATION":81.1479,"RA_OF_ASC_NODE":196.125,"ARG_OF_PERICENTER":173.3011,"MEAN_ANOMALY":186.8562,"EPHEMERIS_TYPE":0,"CLASSIFICATION_TYPE":"U","NORAD_CAT_ID":13403,"ELEMENT_SET_NO":999,"REV_AT_EPOCH":37730,"BSTAR":0.00035801,"MEAN_MOTION_DOT":8.972e-5,"MEAN_MOTION_DDOT":0},{"OBJECT_NAME":"SL-14 R/B","OBJECT_ID":"1982-092B","EPOCH":"2026-03-06T06:40:17.311296","MEAN_MOTION":14.86662436,"ECCENTRICITY":0.00192042,"INCLINATION":82.57,"RA_OF_ASC_NODE":144.5903,"ARG_OF_PERICENTER":315.612,"MEAN_ANOMALY":104.2493,"EPHEMERIS_TYPE":0,"CLASSIFICATION_TYPE":"U","NORAD_CAT_ID":13553,"ELEMENT_SET_NO":999,"REV_AT_EPOCH":32842,"BSTAR":7.0757614e-5,"MEAN_MOTION_DOT":6.54e-6,"MEAN_MOTION_DDOT":0},{"OBJECT_NAME":"SL-3 R/B","OBJECT_ID":"1983-010B","EPOCH":"2026-03-06T21:55:43.235040","MEAN_MOTION":15.46230407,"ECCENTRICITY":0.0018217,"INCLINATION":81.1067,"RA_OF_ASC_NODE":5.6498,"ARG_OF_PERICENTER":60.101,"MEAN_ANOMALY":300.2041,"EPHEMERIS_TYPE":0,"CLASSIFICATION_TYPE":"U","NORAD_CAT_ID":13819,"ELEMENT_SET_NO":999,"REV_AT_EPOCH":35751,"BSTAR":0.00039689,"MEAN_MOTION_DOT":0.00019687,"MEAN_MOTION_DDOT":0},{"OBJECT_NAME":"SL-3 R/B","OBJECT_ID":"1983-075B","EPOCH":"2026-03-07T03:36:28.366848","MEAN_MOTION":15.38339493,"ECCENTRICITY":0.0019916,"INCLINATION":97.6142,"RA_OF_ASC_NODE":70.6312,"ARG_OF_PERICENTER":235.6705,"MEAN_ANOMALY":124.2655,"EPHEMERIS_TYPE":0,"CLASSIFICATION_TYPE":"U","NORAD_CAT_ID":14208,"ELEMENT_SET_NO":999,"REV_AT_EPOCH":32976,"BSTAR":0.00035361,"MEAN_MOTION_DOT":0.00013373,"MEAN_MOTION_DDOT":0},{"OBJECT_NAME":"COSMOS 1536","OBJECT_ID":"1984-013A","EPOCH":"2026-03-07T03:48:48.879648","MEAN_MOTION":15.2378306,"ECCENTRICITY":0.0012627,"INCLINATION":82.5427,"RA_OF_ASC_NODE":110.3662,"ARG_OF_PERICENTER":293.5723,"MEAN_ANOMALY":66.4187,"EPHEMERIS_TYPE":0,"CLASSIFICATION_TYPE":"U","NORAD_CAT_ID":14699,"ELEMENT_SET_NO":999,"REV_AT_EPOCH":27223,"BSTAR":0.00026753,"MEAN_MOTION_DOT":6.482e-5,"MEAN_MOTION_DDOT":0},{"OBJECT_NAME":"SL-14 R/B","OBJECT_ID":"1984-027B","EPOCH":"2026-03-06T23:59:29.608800","MEAN_MOTION":14.85972773,"ECCENTRICITY":0.0017581,"INCLINATION":82.5383,"RA_OF_ASC_NODE":247.5363,"ARG_OF_PERICENTER":347.08,"MEAN_ANOMALY":12.9963,"EPHEMERIS_TYPE":0,"CLASSIFICATION_TYPE":"U","NORAD_CAT_ID":14820,"ELEMENT_SET_NO":999,"REV_AT_EPOCH":24723,"BSTAR":6.5151e-5,"MEAN_MOTION_DOT":5.94e-6,"MEAN_MOTION_DDOT":0},{"OBJECT_NAME":"SL-8 R/B","OBJECT_ID":"1985-006B","EPOCH":"2026-03-07T00:34:48.998208","MEAN_MOTION":14.37780032,"ECCENTRICITY":0.0018557,"INCLINATION":74.0432,"RA_OF_ASC_NODE":266.0538,"ARG_OF_PERICENTER":184.4732,"MEAN_ANOMALY":289.6073,"EPHEMERIS_TYPE":0,"CLASSIFICATION_TYPE":"U","NORAD_CAT_ID":15483,"ELEMENT_SET_NO":999,"REV_AT_EPOCH":15364,"BSTAR":7.8809e-5,"MEAN_MOTION_DOT":2.11e-6,"MEAN_MOTION_DDOT":0},{"OBJECT_NAME":"SL-12 R/B(2)","OBJECT_ID":"1985-042D","EPOCH":"2026-03-07T03:54:43.125696","MEAN_MOTION":14.21981684,"ECCENTRICITY":0.0033385,"INCLINATION":71.1062,"RA_OF_ASC_NODE":93.0674,"ARG_OF_PERICENTER":132.3034,"MEAN_ANOMALY":295.319,"EPHEMERIS_TYPE":0,"CLASSIFICATION_TYPE":"U","NORAD_CAT_ID":15772,"ELEMENT_SET_NO":999,"REV_AT_EPOCH":11403,"BSTAR":3.9497e-5,"MEAN_MOTION_DOT":4.0e-7,"MEAN_MOTION_DDOT":0},{"OBJECT_NAME":"SL-14 R/B","OBJECT_ID":"1985-069B","EPOCH":"2026-03-06T23:38:45.306240","MEAN_MOTION":14.86429044,"ECCENTRICITY":0.0018233,"INCLINATION":82.528,"RA_OF_ASC_NODE":27.4756,"ARG_OF_PERICENTER":196.8188,"MEAN_ANOMALY":163.2426,"EPHEMERIS_TYPE":0,"CLASSIFICATION_TYPE":"U","NORAD_CAT_ID":15945,"ELEMENT_SET_NO":999,"REV_AT_EPOCH":17243,"BSTAR":7.4619e-5,"MEAN_MOTION_DOT":6.85e-6,"MEAN_MOTION_DDOT":0},{"OBJECT_NAME":"SL-16 R/B","OBJECT_ID":"1985-097B","EPOCH":"2026-03-06T09:17:43.725696","MEAN_MOTION":14.16599577,"ECCENTRICITY":0.00099677,"INCLINATION":71.0034,"RA_OF_ASC_NODE":147.5065,"ARG_OF_PERICENTER":263.7562,"MEAN_ANOMALY":167.3141,"EPHEMERIS_TYPE":0,"CLASSIFICATION_TYPE":"U","NORAD_CAT_ID":16182,"ELEMENT_SET_NO":999,"REV_AT_EPOCH":8676,"BSTAR":-3.7692816e-5,"MEAN_MOTION_DOT":-1.23e-6,"MEAN_MOTION_DDOT":0}]
