SL-8 R/B                
1 11574U 79089B   26066.17920835  .00000315  00000+0  10334-3 0  9998
2 11574  74.0671  95.6917 0017150 268.6111  91.3081 14.42348558435740
SL-14 R/B               
1 11672U 80005B   26066.17732972  .00000669  00000+0  65139-4 0  9996
2 11672  82.5149 309.6194 0015978 166.3983 193.7670 14.90926386476116
SL-8 R/B                
1 12139U 81003B   26066.08666031  .00022353  00000+0  57502-3 0  9994
2 12139  82.9380 292.4312 0262451 187.6793 172.0391 15.10845283314280
SL-3 R/B                
1 12465U 81046B   26066.12384250  .00013802  00000+0  32169-3 0  9999
2 12465  81.2297 292.8257 0019768  31.0770 329.1637 15.41910403438030
SL-3 R/B                
1 12904U 81103B   26066.14145005  .00007037  00000+0  31254-3 0  9993
2 12904  81.1587 216.4210 0012514 295.7154  64.2785 15.21338252972844
SL-3 R/B                
1 13068U 82013B   26066.15058853  .00006237  00000+0  27035-3 0  9994
2 13068  81.1764 163.7457 0022471 185.8669 174.2304 15.21983490403964
SL-3 R/B                
1 13154U 82039B   26066.13885235  .00003275  00000+0  19785-3 0  9990
2 13154  81.1584 218.9026 0029792 332.7779  27.1882 15.10061830381250
SL-3 R/B                
1 13403U 82079B   26066.10754916  .00008972  00000+0  35801-3 0  9995
2 13403  81.1479 196.1250 0024959 173.3011 186.8562 15.24749804377302
SL-14 R/B               
1 13553U 82092B   26065.27797814  .00000654  00000+0  70758-4 0  9997
2 13553  82.5700 144.5903 0019204 315.6120 104.2493 14.86662436328429
SL-3 R/B                
1 13819U 83010B   26065.91369485  .00019687  00000+0  39689-3 0  9996
2 13819  81.1067   5.6498 0018217  60.1010 300.2041 15.46230407357519
SL-3 R/B                
1 14208U 83075B   26066.15032832  .00013373  00000+0  35361-3 0  9999
2 14208  97.6142  70.6312 0019916 235.6705 124.2655 15.38339493329769
COSMOS 1536             
1 14699U 84013A   26066.15889907  .00006482  00000+0  26753-3 0  9997
2 14699  82.5427 110.3662 0012627 293.5723  66.4187 15.23783060272230
SL-14 R/B               
1 14820U 84027B   26065.99964825  .00000594  00000+0  65151-4 0  9996
2 14820  82.5383 247.5363 0017581 347.0800  12.9963 14.85972773247231
SL-8 R/B                
1 15483U 85006B   26066.02417822  .00000211  00000+0  78809-4 0  9995
2 15483  74.0432 266.0538 0018557 184.4732 289.6073 14.37780032153647
SL-12 R/B(2)            
1 15772U 85042D   26066.16299914  .00000040  00000+0  39497-4 0  9991
2 15772  71.1062  93.0674 0033385 132.3034 295.3190 14.21981684114030
SL-14 R/B               
1 15945U 85069B   26065.98524660  .00000685  00000+0  74619-4 0  9990
2 15945  82.5280  27.4756 0018233 196.8188 163.2426 14.86429044172433
SL-16 R/B               
1 16182U 85097B   26065.38731164 -.00000123  00000+0 -37693-4 0  9998
2 16182  71.0034 147.5065 0009967 263.7562 167.3141 14.16599577 86769
